INTELSAT 18         [PM]
1 37834C 11056A   15174.73125000  .00000146  00000-0  00000-0 0 17455
2 37834   0.0066  31.4391 0001946  53.3491 270.0042  1.00272063    12
INTELSAT 22             
1 38098C 12011A   15166.00000000  .00000032  00000-0  00000-0 0 16603
2 38098   0.0244   4.0575 0001855  92.7594 238.2216  1.00272865    12
INTELSAT 22             
1 38098C 12011A   15169.00000000  .00000032  00000-0  00000-0 0 16909
2 38098   0.0246  19.9307 0001824  75.9691 242.1030  1.00272652    11
INTELSAT 22         [PM]
1 38098C 12011A   15172.79841435  .00000031  00000-0  00000-0 0 17263
2 38098   0.0205 357.0135 0001939 100.0105 172.1683  1.00271101    12
INTELSAT 19             
1 38356C 12030A   15166.00000000  .00000033  00000-0  00000-0 0 16602
2 38356   0.0198  18.1669 0002520  66.3861 344.3961  1.00271366    12
INTELSAT 19             
1 38356C 12030A   15169.00000000  .00000033  00000-0  00000-0 0 16908
2 38356   0.0229  36.8206 0002542  47.5073 347.5764  1.00271761    16
INTELSAT 19         [PM]
1 38356C 12030A   15174.03482639  .00000033  00000-0  00000-0 0 17405
2 38356   0.0295 306.1897 0002951 140.5578   2.6683  1.00271368    18
INTELSAT 20             
1 38740C 12043A   15166.00000000  .00000063  00000-0  00000-0 0 16606
2 38740   0.0239 304.4078 0000723 356.0772  30.9681  1.00270802    14
INTELSAT 20         [PM]
1 38740C 12043A   15168.48888889  .00000070  00000-0  00000-0 0 16832
2 38740   0.0241 299.2426 0000757   6.4857 204.1736  1.00272050    15
INTELSAT 20             
1 38740C 12043A   15168.95251157  .00000066  00000-0  00000-0 0 16875
2 38740   0.0199 308.8291 0000783   4.2146   4.2230  1.00270367    17
INTELSAT 21             
1 38749C 12045A   15166.00000000 -.00000188  00000-0  00000-0 0 16606
2 38749   0.0267  47.5086 0002003  46.9220 110.5220  1.00271579    10
INTELSAT 21             
1 38749C 12045A   15169.00000000 -.00000196  00000-0  00000-0 0 16901
2 38749   0.0088   6.1807 0002083  90.5933 111.1326  1.00271578    10
INTELSAT 21         [PM]
1 38749C 12045A   15171.92150463 -.00000195  00000-0  00000-0 0 17173
2 38749   0.0094  23.6907 0002262  64.2293  94.5994  1.00274513    15
INTELSAT 23             
1 38867C 12057A   15166.00000000 -.00000196  00000-0  00000-0 0 16609
2 38867   0.0000   4.2229 0001397  79.6401 126.0899  1.00271008    15
INTELSAT 23             
1 38867C 12057A   15169.00000000 -.00000203  00000-0  00000-0 0 16904
2 38867   0.0105  45.3288 0001414  35.6487 131.9162  1.00270130    11
INTELSAT 23         [PM]
1 38867C 12057A   15172.67349537 -.00000195  00000-0  00000-0 0 17251
2 38867   0.0253 282.0804 0001598 136.5215  40.3813  1.00272795    17
INTELSAT 30             
1 40271C 14062A   15166.00000000 -.00000078  00000-0  00000-0 0 16608
2 40271   0.0450 160.2824 0001921  65.9970 301.6278  1.00271124    13
INTELSAT 30         [PM]
1 40271C 14062A   15168.26680556 -.00000032  00000-0  00000-0 0 16822
2 40271   0.0001  26.0335 0001860 194.4181  45.7266  1.00273117    12
INTELSAT 30             
1 40271C 14062A   15168.95251157 -.00002484  00000-0  00000-0 0 16877
2 40271   0.0444 164.4790 0001854  61.4625 287.7711  1.00271474    11
